ORBCOMM FM115 [+]       
1 41186U 15081H   24025.87256103  .00001396  00000+0  32157-3 0  9999
2 41186  46.9994 292.8448 0001102 265.5693  94.5067 14.60305447433421
ORBCOMM FM108 [+]       
1 41187U 15081J   24025.96537186  .00002030  00000+0  49216-3 0  9993
2 41187  47.0060 343.3894 0001677 147.4810 212.6178 14.56222251432758
ORBCOMM FM117 [+]       
1 41188U 15081K   24024.97077802  .00002067  00000+0  50047-3 0  9992
2 41188  47.0021 347.0024 0002235 157.3414 202.7570 14.56222310432575
ORBCOMM FM116 [+]       
1 41189U 15081L   24025.98941413  .00002405  00000+0  57607-3 0  9998
2 41189  47.0016  72.0193 0003225 252.8658 107.1874 14.56230538431602
